{"type": "FeatureCollection", "features": [ {"type": "Feature", "properties": {"norad_id": 31430, "name": "FENGYUN 1C DEB", "group": "fengyun-1c-debris", "lat": -65.89202334422465, "lon": -150.2277415889732, "alt_km": 831.1408517102345, "timestamp": "2025-12-12T20:43:07.317568+00:00", "meta": {"OBJECT_NAME": "FENGYUN 1C DEB", "OBJECT_ID": "1999-025BTS", "EPOCH": "2025-12-11T15:38:30.869088", "MEAN_MOTION": 14.25596186, "ECCENTRICITY": 0.00269185, "INCLINATION": 98.7436, "RA_OF_ASC_NODE": 48.6801, "ARG_OF_PERICENTER": 45.6074, "MEAN_ANOMALY": 107.6578, "EPHEMERIS_TYPE": 0, "CLASSIFICATION_TYPE": "U", "NORAD_CAT_ID": 31430, "ELEMENT_SET_NO": 999, "REV_AT_EPOCH": 96102, "BSTAR": 0.0014563792, "MEAN_MOTION_DOT": 3.418e-05, "MEAN_MOTION_DDOT": 0}, "tle": {"line1": "1 31430U 99025BTS 25345.65174617  .00003418  00000+0  14564-2 0  9999", "line2": "2 31430  98.7436  48.6801 0026918  45.6074 107.6578 14.25596186961028"}}, "geometry": {"type": "Point", "coordinates": [-150.2277415889732, -65.89202334422465]}}, {"type": "Feature", "properties": {"norad_id": 31431, "name": "FENGYUN 1C DEB", "group": "fengyun-1c-debris", "lat": 49.26304293298224, "lon": 65.07566253228234, "alt_km": 799.0180495760569, "timestamp": "2025-12-12T20:43:07.317578+00:00", "meta": {"OBJECT_NAME": "FENGYUN 1C DEB", "OBJECT_ID": "1999-025BTT", "EPOCH": "2025-12-07T15:10:24.373056", "MEAN_MOTION": 14.03044754, "ECCENTRICITY": 0.01330657, "INCLINATION": 98.5386, "RA_OF_ASC_NODE": 230.1202, "ARG_OF_PERICENTER": 109.6865, "MEAN_ANOMALY": 251.8715, "EPHEMERIS_TYPE": 0, "CLASSIFICATION_TYPE": "U", "NORAD_CAT_ID": 31431, "ELEMENT_SET_NO": 999, "REV_AT_EPOCH": 94460, "BSTAR": 0.0022798155, "MEAN_MOTION_DOT": 3.793e-05, "MEAN_MOTION_DDOT": 0}, "tle": {"line1": "1 31431U 99025BTT 25341.63222654  .00003793  00000+0  22798-2 0  9993", "line2": "2 31431  98.5386 230.1202 0133065 109.6865 251.8715 14.03044754944600"}}, "geometry": {"type": "Point", "coordinates": [65.07566253228234, 49.26304293298224]}}, {"type": "Feature", "properties": {"norad_id": 31433, "name": "FENGYUN 1C DEB", "group": "fengyun-1c-debris", "lat": 65.32520193082115, "lon": -128.45591807324527, "alt_km": 743.4036344269925, "timestamp": "2025-12-12T20:43:07.317589+00:00", "meta": {"OBJECT_NAME": "FENGYUN 1C DEB", "OBJECT_ID": "1999-025BTV", "EPOCH": "2025-12-12T05:57:44.858304", "MEAN_MOTION": 14.25421158, "ECCENTRICITY": 0.0100309, "INCLINATION": 98.41, "RA_OF_ASC_NODE": 249.7394, "ARG_OF_PERICENTER": 30.7827, "MEAN_ANOMALY": 121.9906, "EPHEMERIS_TYPE": 0, "CLASSIFICATION_TYPE": "U", "NORAD_CAT_ID": 31433, "ELEMENT_SET_NO": 999, "REV_AT_EPOCH": 95545, "BSTAR": 0.0039619554, "MEAN_MOTION_DOT": 9.825e-05, "MEAN_MOTION_DDOT": 0}, "tle": {"line1": "1 31433U 99025BTV 25346.24843586  .00009825  00000+0  39620-2 0  9994", "line2": "2 31433  98.4100 249.7394 0100309  30.7827 121.9906 14.25421158955455"}}, "geometry": {"type": "Point", "coordinates": [-128.45591807324527, 65.32520193082115]}}, {"type": "Feature", "properties": {"norad_id": 31435, "name": "FENGYUN 1C DEB", "group": "fengyun-1c-debris", "lat": 24.93536643820968, "lon": -17.055597536124097, "alt_km": 617.6401488106512, "timestamp": "2025-12-12T20:43:07.317599+00:00", "meta": {"OBJECT_NAME": "FENGYUN 1C DEB", "OBJECT_ID": "1999-025BTX", "EPOCH": "2025-12-11T22:31:38.096832", "MEAN_MOTION": 14.53433535, "ECCENTRICITY": 0.0148981, "INCLINATION": 99.0366, "RA_OF_ASC_NODE": 157.7043, "ARG_OF_PERICENTER": 182.4231, "MEAN_ANOMALY": 177.6259, "EPHEMERIS_TYPE": 0, "CLASSIFICATION_TYPE": "U", "NORAD_CAT_ID": 31435, "ELEMENT_SET_NO": 999, "REV_AT_EPOCH": 98361, "BSTAR": 0.0004342, "MEAN_MOTION_DOT": 2.034e-05, "MEAN_MOTION_DDOT": 0}, "tle": {"line1": "1 31435U 99025BTX 25345.93863538  .00002034  00000+0  43420-3 0  9999", "line2": "2 31435  99.0366 157.7043 0148981 182.4231 177.6259 14.53433535983610"}}, "geometry": {"type": "Point", "coordinates": [-17.055597536124097, 24.93536643820968]}}, {"type": "Feature", "properties": {"norad_id": 31436, "name": "FENGYUN 1C DEB", "group": "fengyun-1c-debris", "lat": 53.38369066356976, "lon": 31.9732244319989, "alt_km": 595.5826220118452, "timestamp": "2025-12-12T20:43:07.317609+00:00", "meta": {"OBJECT_NAME": "FENGYUN 1C DEB", "OBJECT_ID": "1999-025BTY", "EPOCH": "2025-12-08T13:28:51.661920", "MEAN_MOTION": 14.93022785, "ECCENTRICITY": 0.0044316, "INCLINATION": 98.882, "RA_OF_ASC_NODE": 194.9716, "ARG_OF_PERICENTER": 256.2521, "MEAN_ANOMALY": 159.099, "EPHEMERIS_TYPE": 0, "CLASSIFICATION_TYPE": "U", "NORAD_CAT_ID": 31436, "ELEMENT_SET_NO": 999, "REV_AT_EPOCH": 96814, "BSTAR": 0.005826, "MEAN_MOTION_DOT": 0.00062201, "MEAN_MOTION_DDOT": 0}, "tle": {"line1": "1 31436U 99025BTY 25342.56170905  .00062201  00000+0  58260-2 0  9994", "line2": "2 31436  98.8820 194.9716 0044316 256.2521 159.0990 14.93022785968144"}}, "geometry": {"type": "Point", "coordinates": [31.9732244319989, 53.38369066356976]}}, {"type": "Feature", "properties": {"norad_id": 31437, "name": "FENGYUN 1C DEB", "group": "fengyun-1c-debris", "lat": -18.52460910790376, "lon": 70.92934501423348, "alt_km": 756.0448855010336, "timestamp": "2025-12-12T20:43:07.317619+00:00", "meta": {"OBJECT_NAME": "FENGYUN 1C DEB", "OBJECT_ID": "1999-025BTZ", "EPOCH": "2025-12-12T04:09:29.717568", "MEAN_MOTION": 14.42498269, "ECCENTRICITY": 0.00154684, "INCLINATION": 98.8623, "RA_OF_ASC_NODE": 67.216, "ARG_OF_PERICENTER": 248.9781, "MEAN_ANOMALY": 110.9753, "EPHEMERIS_TYPE": 0, "CLASSIFICATION_TYPE": "U", "NORAD_CAT_ID": 31437, "ELEMENT_SET_NO": 999, "REV_AT_EPOCH": 96502, "BSTAR": 0.0034615208, "MEAN_MOTION_DOT": 0.00011459, "MEAN_MOTION_DDOT": 0}, "tle": {"line1": "1 31437U 99025BTZ 25346.17326062  .00011459  00000+0  34615-2 0  9990", "line2": "2 31437  98.8623  67.2160 0015468 248.9781 110.9753 14.42498269965028"}}, "geometry": {"type": "Point", "coordinates": [70.92934501423348, -18.52460910790376]}}, {"type": "Feature", "properties": {"norad_id": 31439, "name": "FENGYUN 1C DEB", "group": "fengyun-1c-debris", "lat": 71.7841500974348, "lon": -158.62344284636472, "alt_km": 844.4143394189596, "timestamp": "2025-12-12T20:43:07.317629+00:00", "meta": {"OBJECT_NAME": "FENGYUN 1C DEB", "OBJECT_ID": "1999-025BUB", "EPOCH": "2025-12-11T06:27:20.803392", "MEAN_MOTION": 13.95576352, "ECCENTRICITY": 0.01378211, "INCLINATION": 98.917, "RA_OF_ASC_NODE": 351.3398, "ARG_OF_PERICENTER": 165.839, "MEAN_ANOMALY": 215.9218, "EPHEMERIS_TYPE": 0, "CLASSIFICATION_TYPE": "U", "NORAD_CAT_ID": 31439, "ELEMENT_SET_NO": 999, "REV_AT_EPOCH": 63212, "BSTAR": 0.00082710454, "MEAN_MOTION_DOT": 1.176e-05, "MEAN_MOTION_DDOT": 0}, "tle": {"line1": "1 31439U 99025BUB 25345.26899078  .00001176  00000+0  82710-3 0  9998", "line2": "2 31439  98.9170 351.3398 0137821 165.8390 215.9218 13.95576352632120"}}, "geometry": {"type": "Point", "coordinates": [-158.62344284636472, 71.7841500974348]}}, {"type": "Feature", "properties": {"norad_id": 31440, "name": "FENGYUN 1C DEB", "group": "fengyun-1c-debris", "lat": 65.05750073266779, "lon": 55.536196540323644, "alt_km": 760.6767199902533, "timestamp": "2025-12-12T20:43:07.317639+00:00", "meta": {"OBJECT_NAME": "FENGYUN 1C DEB", "OBJECT_ID": "1999-025BUC", "EPOCH": "2025-12-12T05:22:06.119616", "MEAN_MOTION": 14.36690933, "ECCENTRICITY": 0.00369109, "INCLINATION": 98.7452, "RA_OF_ASC_NODE": 74.2143, "ARG_OF_PERICENTER": 343.4107, "MEAN_ANOMALY": 16.5868, "EPHEMERIS_TYPE": 0, "CLASSIFICATION_TYPE": "U", "NORAD_CAT_ID": 31440, "ELEMENT_SET_NO": 999, "REV_AT_EPOCH": 96318, "BSTAR": 0.003015431, "MEAN_MOTION_DOT": 8.918e-05, "MEAN_MOTION_DDOT": 0}, "tle": {"line1": "1 31440U 99025BUC 25346.22368194  .00008918  00000+0  30154-2 0  9992", "line2": "2 31440  98.7452  74.2143 0036910 343.4107  16.5868 14.36690933963186"}}, "geometry": {"type": "Point", "coordinates": [55.536196540323644, 65.05750073266779]}}, {"type": "Feature", "properties": {"norad_id": 31441, "name": "FENGYUN 1C DEB", "group": "fengyun-1c-debris", "lat": 76.01486503462127, "lon": 168.48274100824193, "alt_km": 654.9871459559708, "timestamp": "2025-12-12T20:43:07.317650+00:00", "meta": {"OBJECT_NAME": "FENGYUN 1C DEB", "OBJECT_ID": "1999-025BUD", "EPOCH": "2025-12-07T08:28:41.429856", "MEAN_MOTION": 14.7453624, "ECCENTRICITY": 0.01049906, "INCLINATION": 99.3118, "RA_OF_ASC_NODE": 203.3613, "ARG_OF_PERICENTER": 352.0587, "MEAN_ANOMALY": 7.8951, "EPHEMERIS_TYPE": 0, "CLASSIFICATION_TYPE": "U", "NORAD_CAT_ID": 31441, "ELEMENT_SET_NO": 999, "REV_AT_EPOCH": 64011, "BSTAR": 0.0080507132, "MEAN_MOTION_DOT": 0.0005895, "MEAN_MOTION_DDOT": 0}, "tle": {"line1": "1 31441U 99025BUD 25341.35325729  .00058950  00000+0  80507-2 0  9997", "line2": "2 31441  99.3118 203.3613 0104990 352.0587   7.8951 14.74536240640115"}}, "geometry": {"type": "Point", "coordinates": [168.48274100824193, 76.01486503462127]}}, {"type": "Feature", "properties": {"norad_id": 31442, "name": "FENGYUN 1C DEB", "group": "fengyun-1c-debris", "lat": 54.27088869017512, "lon": 60.796256073130785, "alt_km": 731.7061362371524, "timestamp": "2025-12-12T20:43:07.317660+00:00", "meta": {"OBJECT_NAME": "FENGYUN 1C DEB", "OBJECT_ID": "1999-025BUE", "EPOCH": "2025-12-10T11:31:37.831008", "MEAN_MOTION": 14.3392245, "ECCENTRICITY": 0.00792158, "INCLINATION": 98.5305, "RA_OF_ASC_NODE": 70.4894, "ARG_OF_PERICENTER": 19.4196, "MEAN_ANOMALY": 340.9978, "EPHEMERIS_TYPE": 0, "CLASSIFICATION_TYPE": "U", "NORAD_CAT_ID": 31442, "ELEMENT_SET_NO": 999, "REV_AT_EPOCH": 97328, "BSTAR": 0.00052575283, "MEAN_MOTION_DOT": 1.474e-05, "MEAN_MOTION_DDOT": 0}, "tle": {"line1": "1 31442U 99025BUE 25344.48029897  .00001474  00000+0  52575-3 0  9996", "line2": "2 31442  98.5305  70.4894 0079215  19.4196 340.9978 14.33922450973284"}}, "geometry": {"type": "Point", "coordinates": [60.796256073130785, 54.27088869017512]}}]}